NORAD_CAT_ID,OBJECT_NAME,OBJECT_TYPE,EPOCH,MEAN_MOTION,ECCENTRICITY,INCLINATION,RA_OF_ASC_NODE,ARG_OF_PERICENTER,MEAN_ANOMALY,BSTAR,MEAN_MOTION_DOT,MEAN_MOTION_DDOT,TLE_LINE0,TLE_LINE1,TLE_LINE2,SEMIMAJOR_AXIS,PERIOD,APOGEE,PERIGEE,DECAYED
51776.0,STARLINK-3608,PAYLOAD,2022-12-16 09:15:19,15.08828673,0.000251,53.2177,233.2319,31.0405,329.0735,-7.5619e-05,-1.491e-05,0.0,0 STARLINK-3608,1 51776U 22017J   22350.38564802 -.00001491  00000-0 -75619-4 0  9995,2 51776  53.2177 233.2319 0002510  31.0405 329.0735 15.08828673 44530,6917.915,95.438,541.516,538.044,0.0
51776.0,STARLINK-3608,PAYLOAD,2022-12-16 20:23:01,15.08833011,0.0002581,53.2177,231.1503,30.2823,329.8318,7.4788e-05,9.02e-06,0.0,0 STARLINK-3608,1 51776U 22017J   22350.84932099  .00000902  00000-0  74788-4 0  9993,2 51776  53.2177 231.1503 0002581  30.2823 329.8318 15.08833011 46095,6917.901999999999,95.438,541.552,537.981,0.0
51776.0,STARLINK-3608,PAYLOAD,2022-12-17 09:06:07,15.08828435,0.0002674,53.2174,228.7718,33.2583,326.8577,9.4726e-06,-1.38e-06,0.0,0 STARLINK-3608,1 51776U 22017J   22351.37924872 -.00000138  00000-0  94726-5 0  9999,2 51776  53.2174 228.7718 0002674  33.2583 326.8577 15.08828435 44682,6917.916,95.438,541.631,537.931,0.0
51776.0,STARLINK-3608,PAYLOAD,2022-12-18 00:59:58,15.0884034,0.0002426,53.2168,225.7973,28.2163,331.8961,-7.4523e-05,-1.474e-05,0.0,0 STARLINK-3608,1 51776U 22017J   22352.04164354 -.00001474  00000-0 -74523-4 0  9992,2 51776  53.2168 225.7973 0002426  28.2163 331.8961 15.08840340 46277,6917.879,95.438,541.423,538.066,0.0
51776.0,STARLINK-3608,PAYLOAD,2022-12-18 08:56:54,15.08829518,0.000253,53.2173,224.3111,31.9587,328.1558,-3.5023e-05,-8.46e-06,0.0,0 STARLINK-3608,1 51776U 22017J   22352.37285074 -.00000846  00000-0 -35023-4 0  9995,2 51776  53.2173 224.3111 0002530  31.9587 328.1558 15.08829518 46320,6917.9119999999975,95.438,541.528,538.0269999999998,0.0
51776.0,STARLINK-3608,PAYLOAD,2022-12-18 21:39:59,15.08834806,0.0002551,53.2172,221.9332,35.3093,324.8068,7.2782000000000034e-06,-1.73e-06,0.0,0 STARLINK-3608,1 51776U 22017J   22352.90276904 -.00000173  00000-0  72782-5 0  9992,2 51776  53.2172 221.9332 0002551  35.3093 324.8068 15.08834806 44918,6917.896,95.438,541.526,537.997,0.0
51776.0,STARLINK-3608,PAYLOAD,2022-12-19 00:50:45,15.08842155,0.0002607,53.2173,221.3377,34.4276,325.6885,2.596e-05,1.25e-06,0.0,0 STARLINK-3608,1 51776U 22017J   22353.03524395  .00000125  00000-0  25960-4 0  9998,2 51776  53.2173 221.3377 0002607  34.4276 325.6885 15.08842155 46427,6917.874,95.437,541.5419999999998,537.935,0.0
51776.0,STARLINK-3608,PAYLOAD,2022-12-19 08:47:40,15.0884732,0.0002552,53.2173,219.8511,35.4161,324.7,5.9745e-05,6.63e-06,0.0,0 STARLINK-3608,1 51776U 22017J   22353.36643857  .00000663  00000-0  59745-4 0  9994,2 51776  53.2173 219.8511 0002552  35.4161 324.7000 15.08847320 44989,6917.858,95.437,541.488,537.9580000000002,0.0
51776.0,STARLINK-3608,PAYLOAD,2022-12-19 18:19:59,15.08843848,0.0002709,53.2175,218.0678,36.6403,323.4774,2.8941e-05,1.72e-06,0.0,0 STARLINK-3608,1 51776U 22017J   22353.76388160  .00000172  00000-0  28941-4 0  9990,2 51776  53.2175 218.0678 0002709  36.6403 323.4774 15.08843848 45045,6917.869000000002,95.437,541.6080000000002,537.86,0.0
51776.0,STARLINK-3608,PAYLOAD,2022-12-20 08:38:27,15.08844939,0.0002742,53.2175,215.3912,38.0719,322.0466,0.00013862,1.919e-05,0.0,0 STARLINK-3608,1 51776U 22017J   22354.36003562  .00001919  00000-0  13862-3 0  9992,2 51776  53.2175 215.3912 0002742  38.0719 322.0466 15.08844939 45134,6917.865,95.437,541.627,537.8330000000002,0.0
51776.0,STARLINK-3608,PAYLOAD,2022-12-21 00:32:19,15.08837475,0.0002943,53.2176,212.4189,37.0433,323.0762,-2.2035e-05,-6.39e-06,0.0,0 STARLINK-3608,1 51776U 22017J   22355.02244487 -.00000639  00000-0 -22035-4 0  9992,2 51776  53.2176 212.4189 0002943  37.0433 323.0762 15.08837475 46727,6917.888000000001,95.438,541.789,537.717,0.0
51776.0,STARLINK-3608,PAYLOAD,2022-12-22 00:23:07,15.0882603,0.0002739,53.2167,207.9558,40.0274,320.092,-0.00011584,-2.131e-05,0.0,0 STARLINK-3608,1 51776U 22017J   22356.01606037 -.00002131  00000-0 -11584-3 0  9990,2 51776  53.2167 207.9558 0002739  40.0274 320.0920 15.08826030 46870,6917.9230000000025,95.438,541.683,537.893,0.0
51776.0,STARLINK-3608,PAYLOAD,2022-12-22 06:44:40,15.08829041,0.0002755,53.2171,206.7666,40.4695,319.6501,-9.3369e-05,-1.774e-05,0.0,0 STARLINK-3608,1 51776U 22017J   22356.28101957 -.00001774  00000-0 -93369-4 0  9994,2 51776  53.2171 206.7666 0002755  40.4695 319.6501 15.08829041 45425,6917.9140000000025,95.438,541.685,537.873,0.0
51776.0,STARLINK-3608,PAYLOAD,2022-12-22 21:03:08,15.08830237,0.0002745,53.217,204.0899,39.5554,320.5638,-3.5533e-05,-8.54e-06,0.0,0 STARLINK-3608,1 51776U 22017J   22356.87718024 -.00000854  00000-0 -35533-4 0  9995,2 51776  53.2170 204.0899 0002745  39.5554 320.5638 15.08830237 45516,6917.91,95.438,541.674,537.876,0.0
51776.0,STARLINK-3608,PAYLOAD,2022-12-22 22:38:31,15.08830815,0.000274,53.2165,203.7931,42.7832,317.3373,-2.6363e-05,-7.08e-06,0.0,0 STARLINK-3608,1 51776U 22017J   22356.94341994 -.00000708  00000-0 -26363-4 0  9990,2 51776  53.2165 203.7931 0002740  42.7832 317.3373 15.08830815 47012,6917.908,95.438,541.669,537.878,0.0
51776.0,STARLINK-3608,PAYLOAD,2022-12-23 06:35:27,15.08826819,0.0002727,53.2164,202.3066,39.973,320.1462,8.036e-05,9.9e-06,0.0,0 STARLINK-3608,1 51776U 22017J   22357.27462093  .00000990  00000-0  80360-4 0  9999,2 51776  53.2164 202.3066 0002727  39.9730 320.1462 15.08826819 45574,6917.920999999999,95.438,541.672,537.899,0.0
51776.0,STARLINK-3608,PAYLOAD,2022-12-23 14:32:23,15.08820728,0.0002688,53.2162,200.8203,41.0779,319.0415,2.5978e-05,1.25e-06,0.0,0 STARLINK-3608,1 51776U 22017J   22357.60583049  .00000125  00000-0  25978-4 0  9995,2 51776  53.2162 200.8203 0002688  41.0779 319.0415 15.08820728 47111,6917.939,95.439,541.664,537.945,0.0
51776.0,STARLINK-3608,PAYLOAD,2022-12-24 06:26:15,15.08827719,0.0002737,53.2162,197.8468,42.7848,317.3357,5.8856e-05,6.48e-06,0.0,0 STARLINK-3608,1 51776U 22017J   22358.26823126  .00000648  00000-0  58856-4 0  9992,2 51776  53.2162 197.8468 0002737  42.7848 317.3357 15.08827719 47213,6917.918000000002,95.438,541.6759999999998,537.889,0.0
51776.0,STARLINK-3608,PAYLOAD,2022-12-24 20:44:43,15.08834158,0.0002697,53.2162,195.1707,44.8185,315.3025,3.8828e-05,3.29e-06,0.0,0 STARLINK-3608,1 51776U 22017J   22358.86439104  .00000329  00000-0  38828-4 0  9990,2 51776  53.2162 195.1707 0002697  44.8185 315.3025 15.08834158 45811,6917.898,95.438,541.629,537.8969999999998,0.0
51776.0,STARLINK-3608,PAYLOAD,2022-12-25 06:17:01,15.08838929,0.0002722,53.2159,193.3866,45.2303,314.8911,4.2935e-05,3.95e-06,0.0,0 STARLINK-3608,1 51776U 22017J   22359.26182866  .00000395  00000-0  42935-4 0  9992,2 51776  53.2159 193.3866 0002722  45.2303 314.8911 15.08838929 47369,6917.884,95.438,541.632,537.866,0.0
51776.0,STARLINK-3608,PAYLOAD,2022-12-25 12:38:34,15.08839347,0.0002715,53.2158,192.1974,45.7068,314.4146,7.0619e-05,8.36e-06,0.0,0 STARLINK-3608,1 51776U 22017J   22359.52678751  .00000836  00000-0  70619-4 0  9994,2 51776  53.2158 192.1974 0002715  45.7068 314.4146 15.08839347 45910,6917.882,95.438,541.626,537.869,0.0
51776.0,STARLINK-3608,PAYLOAD,2022-12-25 15:49:20,15.08837185,0.0002776,53.2161,191.6015,45.8269,314.2951,8.7286e-05,1.101e-05,0.0,0 STARLINK-3608,1 51776U 22017J   22359.65926859  .00001101  00000-0  87286-4 0  9997,2 51776  53.2161 191.6015 0002776  45.8269 314.2951 15.08837185 45937,6917.889,95.438,541.674,537.8340000000002,0.0
51776.0,STARLINK-3608,PAYLOAD,2022-12-26 06:07:48,15.08843362,0.0002844,53.2162,188.9254,46.9752,313.1478,7.7924e-05,9.52e-06,0.0,0 STARLINK-3608,1 51776U 22017J   22360.25542454  .00000952  00000-0  77924-4 0  9991,2 51776  53.2162 188.9254 0002844  46.9752 313.1478 15.08843362 46024,6917.87,95.437,541.703,537.768,0.0
51776.0,STARLINK-3608,PAYLOAD,2022-12-26 18:50:53,15.08847778,0.0002852,53.2161,186.5463,48.2281,311.8954,7.7517e-05,9.46e-06,0.0,0 STARLINK-3608,1 51776U 22017J   22360.78533950  .00000946  00000-0  77517-4 0  9991,2 51776  53.2161 186.5463 0002852  48.2281 311.8954 15.08847778 47592,6917.857,95.437,541.695,537.749,0.0
51776.0,STARLINK-3608,PAYLOAD,2022-12-27 12:20:07,15.08850298,0.0002918999999999,53.2161,183.2755,49.976000000000006,310.1488,4.4829e-05,4.25e-06,0.0,0 STARLINK-3608,1 51776U 22017J   22361.51397341  .00000425  00000-0  44829-4 0  9997,2 51776  53.2161 183.2755 0002919  49.9760 310.1488 15.08850298 46217,6917.849,95.437,541.7330000000002,537.695,0.0
51776.0,STARLINK-3608,PAYLOAD,2022-12-27 20:17:03,15.0884468,0.0002891,53.2164,181.7882,50.9048,309.2201,-3.7834e-05,-8.91e-06,0.0,0 STARLINK-3608,1 51776U 22017J   22361.84517786 -.00000891  00000-0 -37834-4 0  9997,2 51776  53.2164 181.7882 0002891  50.9048 309.2201 15.08844680 47754,6917.866,95.437,541.731,537.731,0.0
51776.0,STARLINK-3608,PAYLOAD,2022-12-28 12:10:54,15.08848017,0.0002898,53.2163,178.8142,52.3705,307.755,-1.0687e-05,-4.59e-06,0.0,0 STARLINK-3608,1 51776U 22017J   22362.50757091 -.00000459  00000-0 -10687-4 0  9993,2 51776  53.2163 178.8142 0002898  52.3705 307.7550 15.08848017 46366,6917.856,95.437,541.726,537.716,0.0
51776.0,STARLINK-3608,PAYLOAD,2022-12-28 20:07:49,15.0885149,0.0002887,53.2159,177.327,52.3133,307.8121,-1.3556e-05,-5.04e-06,0.0,0 STARLINK-3608,1 51776U 22017J   22362.83876641 -.00000504  00000-0 -13556-4 0  9991,2 51776  53.2159 177.3270 0002887  52.3133 307.8121 15.08851490 47905,6917.845,95.437,541.707,537.7130000000002,0.0
51776.0,STARLINK-3608,PAYLOAD,2022-12-29 12:01:41,15.08833945,0.0002889,53.2159,174.3534,51.2797,308.8453,-8.353399999999999e-05,-1.618e-05,0.0,0 STARLINK-3608,1 51776U 22017J   22363.50117674 -.00001618  00000-0 -83534-4 0  9990,2 51776  53.2159 174.3534 0002889  51.2797 308.8453 15.08833945 48007,6917.899,95.438,541.762,537.765,0.0
